[
  {
    "name": "Afghanistan",
    "code": "AF",
    "dial_code": "+93"
  },
  {
    "name": "Albania",
    "code": "AL",
    "dial_code": "+355"
  },
  {
    "name": "Algeria",
    "code": "DZ",
    "dial_code": "+213"
  },
  {
    "name": "Andorra",
    "code": "AD",
    "dial_code": "+376"
  },
  {
    "name": "Angola",
    "code": "AO",
    "dial_code": "+244"
  },
  {
    "name": "Argentina",
    "code": "AR",
    "dial_code": "+54"
  },
  {
    "name": "Armenia",
    "code": "AM",
    "dial_code": "+374"
  },
  {
    "name": "Australia",
    "code": "AU",
    "dial_code": "+61"
  },
  {
    "name": "Austria",
    "code": "AT",
    "dial_code": "+43"
  },
  {
    "name": "Azerbaijan",
    "code": "AZ",
    "dial_code": "+994"
  },
  {
    "name": "Bahrain",
    "code": "BH",
    "dial_code": "+973"
  },
  {
    "name": "Bangladesh",
    "code": "BD",
    "dial_code": "+880"
  },
  {
    "name": "Belgium",
    "code": "BE",
    "dial_code": "+32"
  },
  {
    "name": "Bhutan",
    "code": "BT",
    "dial_code": "+975"
  },
  {
    "name": "Brazil",
    "code": "BR",
    "dial_code": "+55"
  },
  {
    "name": "China",
    "code": "CN",
    "dial_code": "+86"
  },
  {
    "name": "Denmark",
    "code": "DK",
    "dial_code": "+45"
  },
  {
    "name": "Egypt",
    "code": "EG",
    "dial_code": "+20"
  },
  {
    "name": "France",
    "code": "FR",
    "dial_code": "+33"
  },
  {
    "name": "Germany",
    "code": "DE",
    "dial_code": "+49"
  },
  {
    "name": "India",
    "code": "IN",
    "dial_code": "+91"
  },
  {
    "name": "Japan",
    "code": "JP",
    "dial_code": "+81"
  },
  {
    "name": "Kenya",
    "code": "KE",
    "dial_code": "+254"
  },
  {
    "name": "Mexico",
    "code": "MX",
    "dial_code": "+52"
  },
  {
    "name": "Netherlands",
    "code": "NL",
    "dial_code": "+31"
  },
  {
    "name": "Nigeria",
    "code": "NG",
    "dial_code": "+234"
  },
  {
    "name": "Pakistan",
    "code": "PK",
    "dial_code": "+92"
  },
  {
    "name": "Russia",
    "code": "RU",
    "dial_code": "+7"
  },
  {
    "name": "South Africa",
    "code": "ZA",
    "dial_code": "+27"
  },
  {
    "name": "United Kingdom",
    "code": "GB",
    "dial_code": "+44"
  },
  {
    "name": "United States",
    "code": "US",
    "dial_code": "+1"
  },
  {
    "name": "Zimbabwe",
    "code": "ZW",
    "dial_code": "+263"
  }
]
